ONEWEB-0320             
1 49190U 21083E   25170.08101610 -.00002634  00000+0 -67195-2 0  9995
2 49190  87.9146  47.6255 0002539  81.1666 278.9754 13.18660147183401
ONEWEB-0321             
1 49191U 21083F   25169.71985154  .00000006  00000+0 -16271-4 0  9998
2 49191  87.9261 346.8295 0002095  97.9992 262.1379 13.20772295188855
ONEWEB-0322             
1 49192U 21083G   25169.86445165 -.00000112  00000+0 -34119-3 0  9997
2 49192  87.8974  32.4579 0002073  92.1520 267.9847 13.13469081183226
ONEWEB-0324             
1 49193U 21083H   25169.91500525  .00000046  00000+0  84288-4 0  9993
2 49193  87.9146  47.6372 0001941  75.8947 284.2401 13.18685019182124
ONEWEB-0325             
1 49194U 21083J   25169.69211199  .00000005  00000+0 -19506-4 0  9992
2 49194  87.9145  47.6988 0001882  83.8631 276.2716 13.18685260182106
ONEWEB-0326             
1 49195U 21083K   25170.08587413 -.00000102  00000+0 -29131-3 0  9996
2 49195  87.9142  47.6107 0001532  71.5668 288.5631 13.18687271183425
ONEWEB-0327             
1 49196U 21083L   25169.93384567  .00000038  00000+0  64173-4 0  9996
2 49196  87.9146  47.6698 0001532  74.8278 285.3024 13.18686656182143
ONEWEB-0328             
1 49197U 21083M   25170.08282626  .00000158  00000+0  39673-3 0  9997
2 49197  87.8960  32.3587 0001874  79.8844 280.2496 13.13468935184522
